NORAD_CAT_ID,OBJECT_NAME,OBJECT_TYPE,EPOCH,MEAN_MOTION,ECCENTRICITY,INCLINATION,RA_OF_ASC_NODE,ARG_OF_PERICENTER,MEAN_ANOMALY,BSTAR,MEAN_MOTION_DOT,MEAN_MOTION_DDOT,TLE_LINE0,TLE_LINE1,TLE_LINE2,SEMIMAJOR_AXIS,PERIOD,APOGEE,PERIGEE,DECAYED
52832.0,STARLINK-4083,PAYLOAD,2022-07-14 08:00:01,15.73125107,0.0002417,53.2153,272.218,21.0258,219.0268,0.00017491,0.0002392,0.0,0 STARLINK-4083,1 52832U 22062C   22195.33334491  .00023920  00000-0  17491-3 0  9992,2 52832  53.2153 272.2180 0002417  21.0258 219.0268 15.73125107  4728,6728.109,91.538,351.6,348.348,0.0
52832.0,STARLINK-4083,PAYLOAD,2022-07-14 14:00:01,15.73113237,0.0002706,53.2152,270.9825,19.8689,196.8117,0.00049371,0.00068989,0.0,0 STARLINK-4083,1 52832U 22062C   22195.58334491  .00068989  00000-0  49371-3 0  9995,2 52832  53.2152 270.9825 0002706  19.8689 196.8117 15.73113237  1309,6728.143,91.538,351.82800000000015,348.18699999999984,0.0
52832.0,STARLINK-4083,PAYLOAD,2022-07-14 22:00:00,15.73173557,0.0002583999999999,53.2147,269.3317,20.4001,285.1365,0.00014927,0.00020357,0.0,0 STARLINK-4083,1 52832U 22062C   22195.91667824  .00020357  00000-0  14927-3 0  9997,2 52832  53.2147 269.3317 0002584  20.4001 285.1365 15.73173557  1309,6727.971,91.535,351.574,348.097,0.0
52832.0,STARLINK-4083,PAYLOAD,2022-07-15 14:00:01,15.73227104,0.0002819,53.2145,266.0342,19.4988,103.8881,0.00028359,0.00039417,0.0,0 STARLINK-4083,1 52832U 22062C   22196.58334491  .00039417  00000-0  28359-3 0  9993,2 52832  53.2145 266.0342 0002819  19.4988 103.8881 15.73227104  4919,6727.818,91.532,351.579,347.786,0.0
52832.0,STARLINK-4083,PAYLOAD,2022-07-15 22:00:00,15.7334903,0.000261,53.2157,264.381,17.9132,194.442,-0.002466,-0.00335509,0.0,0 STARLINK-4083,1 52832U 22062C   22196.91667824 -.00335509  00000-0 -24660-2 0  9992,2 52832  53.2157 264.3810 0002610  17.9132 194.4420 15.73349030  4969,6727.47,91.525,351.091,347.579,0.0
52832.0,STARLINK-4083,PAYLOAD,2022-07-16 06:00:00,15.73243787,0.0002413,53.2167,262.7275,15.4011,285.9164,-0.0080116,-0.010181,0.0,0 STARLINK-4083,1 52832U 22062C   22197.25001157 -.01018100  00000-0 -80116-2 0  9995,2 52832  53.2167 262.7275 0002413  15.4011 285.9164 15.73243787  5028,6727.77,91.531,351.259,348.01199999999994,0.0
52832.0,STARLINK-4083,PAYLOAD,2022-07-16 14:00:01,15.72509326,0.0002474,53.2176,261.0772,13.5098,16.3467,-0.0090907999999999,-0.01108709,0.0,0 STARLINK-4083,1 52832U 22062C   22197.58334491 -.01108709  00000-0 -90908-2 0  9996,2 52832  53.2176 261.0772 0002474  13.5098  16.3467 15.72509326  5073,6729.865,91.573,353.395,350.065,0.0
52832.0,STARLINK-4083,PAYLOAD,2022-07-16 22:00:00,15.71705564,0.0002689,53.2176,259.425,13.4558,104.0108,-0.0093901,-0.01106804,0.0,0 STARLINK-4083,1 52832U 22062C   22197.91667824 -.01106804  00000-0 -93901-2 0  9992,2 52832  53.2176 259.4250 0002689  13.4558 104.0108 15.71705564  1303,6732.159000000002,91.62,355.835,352.214,0.0
52832.0,STARLINK-4083,PAYLOAD,2022-07-17 06:00:00,15.70903114,0.0002599,53.2177,257.7767,16.5773,187.5328,-0.0097168,-0.01106845,0.0,0 STARLINK-4083,1 52832U 22062C   22198.25001157 -.01106845  00000-0 -97168-2 0  9995,2 52832  53.2177 257.7767 0002599  16.5773 187.5328 15.70903114  5170,6734.4519999999975,91.667,358.06699999999995,354.566,0.0
52832.0,STARLINK-4083,PAYLOAD,2022-07-17 14:00:01,15.70100691,0.0002501,53.2174,256.1321,14.8878,274.9002,-0.010058,-0.01107438,0.0,0 STARLINK-4083,1 52832U 22062C   22198.58334491 -.01107438  00000-0 -10058-1 0  9992,2 52832  53.2174 256.1321 0002501  14.8878 274.9002 15.70100691  1306,6736.746,91.714,360.296,356.926,0.0
52832.0,STARLINK-4083,PAYLOAD,2022-07-17 22:00:00,15.69297807,0.0002468,53.2174,254.4857,12.1228,2.3809,-0.010404,-0.01107599,0.0,0 STARLINK-4083,1 52832U 22062C   22198.91667824 -.01107599  00000-0 -10404-1 0  9991,2 52832  53.2174 254.4857 0002468  12.1228   2.3809 15.69297807  5286,6739.044,91.761,362.572,359.245,0.0
52832.0,STARLINK-4083,PAYLOAD,2022-07-18 14:00:01,15.67687128,0.0001373,53.2175,251.2045,55.0315,126.0068,-0.01102,-0.0109801,0.0,0 STARLINK-4083,1 52832U 22062C   22199.58334491 -.01098010  00000-0 -11020-1 0  9998,2 52832  53.2175 251.2045 0001373  55.0315 126.0068 15.67687128  1305,6743.659000000002,91.855,366.45,364.598,0.0
52832.0,STARLINK-4083,PAYLOAD,2022-07-18 22:00:00,15.66889153,0.0001183,53.2176,249.5639,63.7938,199.0638,-0.011479,-0.01123853,0.0,0 STARLINK-4083,1 52832U 22062C   22199.91667824 -.01123853  00000-0 -11479-1 0  9996,2 52832  53.2176 249.5639 0001183  63.7938 199.0638 15.66889153  5444,6745.948,91.902,368.611,367.015,0.0
52832.0,STARLINK-4083,PAYLOAD,2022-07-19 14:00:01,15.65280472,0.0001304,53.2173,246.2945,46.6557,16.9469,-0.012183,-0.01118108,0.0,0 STARLINK-4083,1 52832U 22062C   22200.58334491 -.01118108  00000-0 -12183-1 0  9993,2 52832  53.2173 246.2945 0001304  46.6557  16.9469 15.65280472  5545,6750.569,91.996,373.315,371.554,0.0
52832.0,STARLINK-4083,PAYLOAD,2022-07-19 22:00:00,15.64478019,0.0001322,53.2173,244.6597,54.6921,87.8371,-0.012589,-0.01118712,0.0,0 STARLINK-4083,1 52832U 22062C   22200.91667824 -.01118712  00000-0 -12589-1 0  9990,2 52832  53.2173 244.6597 0001322  54.6921  87.8371 15.64478019  1308,6752.877,92.043,375.635,373.85,0.0
52832.0,STARLINK-4083,PAYLOAD,2022-07-20 04:00:00,15.63876339,0.0001456,53.2174,243.4364,46.1916,64.8981,-0.012901,-0.01119251,0.0,0 STARLINK-4083,1 52832U 22062C   22201.16667824 -.01119251  00000-0 -12901-1 0  9995,2 52832  53.2174 243.4364 0001456  46.1916  64.8981 15.63876339  5634,6754.609,92.079,377.458,375.491,0.0
52832.0,STARLINK-4083,PAYLOAD,2022-07-20 14:00:01,15.62872032,0.0001097,53.2172,241.4021,69.994,227.4899,-0.013399,-0.01117193,0.0,0 STARLINK-4083,1 52832U 22062C   22201.58334491 -.01117193  00000-0 -13399-1 0  9997,2 52832  53.2172 241.4021 0001097  69.9940 227.4899 15.62872032  1301,6757.503000000002,92.138,380.109,378.626,0.0
52832.0,STARLINK-4083,PAYLOAD,2022-07-20 22:00:01,15.62069752,0.0001224,53.2174,239.773,45.6783,327.9033,-0.013856,-0.01119259,0.0,0 STARLINK-4083,1 52832U 22062C   22201.91668981 -.01119259  00000-0 -13856-1 0  9991,2 52832  53.2174 239.7730 0001224  45.6783 327.9033 15.62069752  5754,6759.816,92.185,382.509,380.854,0.0
52832.0,STARLINK-4083,PAYLOAD,2022-07-21 14:00:01,15.604621599999998,0.0001364,53.2173,236.527,56.685,106.063,-0.014684,-0.011147,0.0,0 STARLINK-4083,1 52832U 22062C   22202.58335648 -.01114700  00000-0 -14684-1 0  9992,2 52832  53.2173 236.5270 0001364  56.6850 106.0630 15.60462160  5857,6764.458000000001,92.28,387.246,385.4,0.0
52832.0,STARLINK-4083,PAYLOAD,2022-07-21 22:00:00,15.59660294,0.0001233,53.2175,234.9039,66.9448,168.8756,-0.015171,-0.01116393,0.0,0 STARLINK-4083,1 52832U 22062C   22202.91667824 -.01116393  00000-0 -15171-1 0  9995,2 52832  53.2175 234.9039 0001233  66.9448 168.8756 15.59660294  1303,6766.776,92.328,389.476,387.807,0.0
52832.0,STARLINK-4083,PAYLOAD,2022-07-22 06:00:00,15.58859438,0.0001312,53.2176,233.2859,49.5613,258.4292,-0.015691,-0.01119485,0.0,0 STARLINK-4083,1 52832U 22062C   22203.25001157 -.01119485  00000-0 -15691-1 0  9996,2 52832  53.2176 233.2859 0001312  49.5613 258.4292 15.58859438  5961,6769.094,92.375,391.847,390.071,0.0
52832.0,STARLINK-4083,PAYLOAD,2022-07-22 22:00:00,15.57251294,0.0001319,53.2173,230.0525,49.1163,40.325,-0.016618,-0.01115831,0.0,0 STARLINK-4083,1 52832U 22062C   22203.91667824 -.01115831  00000-0 -16618-1 0  9999,2 52832  53.2173 230.0525 0001319  49.1163  40.3250 15.57251294  6065,6773.753000000002,92.471,396.512,394.725,0.0
52832.0,STARLINK-4083,PAYLOAD,2022-07-23 14:00:01,15.55647214,0.0001423,53.2171,226.8296,52.1571,174.9366,-0.017668,-0.01117055,0.0,0 STARLINK-4083,1 52832U 22062C   22204.58335648 -.01117055  00000-0 -17668-1 0  9995,2 52832  53.2171 226.8296 0001423  52.1571 174.9366 15.55647214  1307,6778.409000000002,92.566,401.23800000000006,399.309,0.0
52832.0,STARLINK-4083,PAYLOAD,2022-07-23 16:00:00,15.55447997,0.0001258,53.2172,226.4265,48.7899,285.1663,-0.017854,-0.01120104,0.0,0 STARLINK-4083,1 52832U 22062C   22204.66667824 -.01120104  00000-0 -17854-1 0  9994,2 52832  53.2172 226.4265 0001258  48.7899 285.1663 15.55447997  6182,6778.988,92.578,401.705,400.0,0.0
52832.0,STARLINK-4083,PAYLOAD,2022-07-23 22:00:00,15.54842117,0.0001228,53.2173,225.2183,56.1916,238.187,-0.018149,-0.01113944,0.0,0 STARLINK-4083,1 52832U 22062C   22204.91667824 -.01113944  00000-0 -18149-1 0  9994,2 52832  53.2173 225.2183 0001228  56.1916 238.1870 15.54842117  1308,6780.749,92.614,403.446,401.781,0.0
52832.0,STARLINK-4083,PAYLOAD,2022-07-24 14:00:01,15.53238384,0.0001329,53.2172,222.0069,47.6755,18.5018,-0.019287,-0.01115837,0.0,0 STARLINK-4083,1 52832U 22062C   22205.58334491 -.01115837  00000-0 -19287-1 0  9996,2 52832  53.2172 222.0069 0001329  47.6755  18.5018 15.53238384  1301,6785.415,92.71,408.182,406.378,0.0
52832.0,STARLINK-4083,PAYLOAD,2022-07-24 22:00:00,15.52434583,0.0001545,53.2173,220.4015,43.6834,86.9488,-0.019854,-0.01115586,0.0,0 STARLINK-4083,1 52832U 22062C   22205.91667824 -.01115586  00000-0 -19854-1 0  9993,2 52832  53.2173 220.4015 0001545  43.6834  86.9488 15.52434583  1307,6787.757,92.758,410.671,408.574,0.0
52832.0,STARLINK-4083,PAYLOAD,2022-07-25 06:00:00,15.51629562,0.0001718,53.2175,218.8013,39.7093,154.4108,-0.020353,-0.01111273,0.0,0 STARLINK-4083,1 52832U 22062C   22206.25001157 -.01111273  00000-0 -20353-1 0  9997,2 52832  53.2175 218.8013 0001718  39.7093 154.4108 15.51629562  6434,6790.105,92.806,413.136,410.80300000000005,0.0
52832.0,STARLINK-4083,PAYLOAD,2022-07-25 14:00:01,15.50722407,0.0001433,53.2171,217.2029,40.7901,215.8713,-0.015471,-0.00828092,0.0,0 STARLINK-4083,1 52832U 22062C   22206.58334491 -.00828092  00000-0 -15471-1 0  9991,2 52832  53.2171 217.2029 0001433  40.7901 215.8713 15.50722407  1300,6792.753000000002,92.86,415.591,413.644,0.0
